{
    "links": {
        "self": "http://www.neowsapp.com/rest/v1/neo/3666432?api_key=iIulBulltgU6a56xZRHN4H3l9WmuAYTsLGpBGhQ2"
    },
    "id": "3666432",
    "neo_reference_id": "3666432",
    "name": "(2014 FB7)",
    "designation": "2014 FB7",
    "nasa_jpl_url": "http://ssd.jpl.nasa.gov/sbdb.cgi?sstr=3666432",
    "absolute_magnitude_h": 27.5,
    "estimated_diameter": {
        "kilometers": {
            "estimated_diameter_min": 0.008405334,
            "estimated_diameter_max": 0.0187948982
        },
        "meters": {
            "estimated_diameter_min": 8.4053340207,
            "estimated_diameter_max": 18.7948982439
        },
        "miles": {
            "estimated_diameter_min": 0.0052228308,
            "estimated_diameter_max": 0.0116786047
        },
        "feet": {
            "estimated_diameter_min": 27.5765560686,
            "estimated_diameter_max": 61.6630539546
        }
    },
    "is_potentially_hazardous_asteroid": false,
    "close_approach_data": [
        {
            "close_approach_date": "2014-03-21",
            "close_approach_date_full": "2014-Mar-21 01:19",
            "epoch_date_close_approach": 1395364740000,
            "relative_velocity": {
                "kilometers_per_second": "11.1334891848",
                "kilometers_per_hour": "40080.5610652922",
                "miles_per_hour": "24904.5019574867"
            },
            "miss_distance": {
                "astronomical": "0.0078817539",
                "lunar": "3.0660022671",
                "kilometers": "1179093.595304193",
                "miles": "732654.7864681434"
            },
            "orbiting_body": "Earth"
        },
        {
            "close_approach_date": "2014-03-21",
            "close_approach_date_full": "2014-Mar-21 07:33",
            "epoch_date_close_approach": 1395387180000,
            "relative_velocity": {
                "kilometers_per_second": "11.6574243049",
                "kilometers_per_hour": "41966.7274978103",
                "miles_per_hour": "26076.4924277366"
            },
            "miss_distance": {
                "astronomical": "0.0088021049",
                "lunar": "3.4240188061",
                "kilometers": "1316776.144556563",
                "miles": "818206.7554760494"
            },
            "orbiting_body": "Moon"
        },
        {
            "close_approach_date": "2017-04-12",
            "close_approach_date_full": "2017-Apr-12 19:58",
            "epoch_date_close_approach": 1492027080000,
            "relative_velocity": {
                "kilometers_per_second": "19.3658567783",
                "kilometers_per_hour": "69717.0844019606",
                "miles_per_hour": "43319.4850274294"
            },
            "miss_distance": {
                "astronomical": "0.2770622459",
                "lunar": "107.7772136551",
                "kilometers": "41447921.844056233",
                "miles": "25754544.3798046954"
            },
            "orbiting_body": "Earth"
        }
    ],
    "orbital_data": {
        "orbit_id": "5",
        "orbit_determination_date": "2017-04-06 08:41:58",
        "first_observation_date": "2014-03-23",
        "last_observation_date": "2014-03-26",
        "data_arc_in_days": 3,
        "observations_used": 24,
        "orbit_uncertainty": "7",
        "minimum_orbit_intersection": ".00394893",
        "jupiter_tisserand_invariant": "3.519",
        "epoch_osculation": "2459000.5",
        "eccentricity": ".5721605428898383",
        "semi_major_axis": "2.100845454806787",
        "inclination": "1.067316951753013",
        "ascending_node_longitude": "11.22390879576083",
        "orbital_period": "1112.217143739561",
        "perihelion_distance": ".8988245788568864",
        "perihelion_argument": "124.7340609745647",
        "aphelion_distance": "3.302866330756687",
        "perihelion_time": "2458928.864776264349",
        "mean_anomaly": "23.18673173668791",
        "mean_motion": ".3236778016112816",
        "equinox": "J2000",
        "orbit_class": {
            "orbit_class_type": "APO",
            "orbit_class_description": "Near-Earth asteroid orbits which cross the Earth’s orbit similar to that of 1862 Apollo",
            "orbit_class_range": "a (semi-major axis) > 1.0 AU; q (perihelion) < 1.017 AU"
        }
    },
    "is_sentry_object": false
}